ONEWEB-0210             
1 48787U 21045W   25134.99194460  .00000011  00000+0 -43590-5 0  9991
2 48787  87.9050 338.5403 0001073  76.2216 283.9034 13.15550087191966
ONEWEB-0214             
1 48788U 21045X   25135.53385938  .00000021  00000+0  21338-4 0  9990
2 48788  87.9049 338.4216 0001364  75.0585 285.0696 13.15548860193128
ONEWEB-0221             
1 48789U 21045Y   25135.54019352  .00000113  00000+0  26664-3 0  9994
2 48789  87.9052 338.4475 0001633  94.8242 265.3075 13.15547030192093
ONEWEB-0213             
1 48790U 21045Z   25135.52910399 -.00000007  00000+0 -51313-4 0  9999
2 48790  87.9049 338.4576 0001445  87.8738 272.2558 13.15549515192156
ONEWEB-0212             
1 48791U 21045AA  25135.04981115 -.00000085  00000+0 -26101-3 0  9993
2 48791  87.9044 338.5398 0001782  88.9667 271.1667 13.15549758192082
ONEWEB-0227             
1 48792U 21045AB  25135.04898609 -.00000061  00000+0 -19612-3 0  9992
2 48792  87.9054 338.5544 0001654  90.3676 269.7643 13.15549868192036
ONEWEB-0226             
1 48793U 21045AC  25135.57506601 -.00000016  00000+0 -76851-4 0  9998
2 48793  87.9050 338.4542 0001360  83.0355 277.0930 13.15548224192077
ONEWEB-0224             
1 48794U 21045AD  25135.53861359  .00000113  00000+0  26670-3 0  9998
2 48794  87.9056 338.4964 0001997 117.0161 243.1173 13.15549330191993
